NORAD_CAT_ID,OBJECT_NAME,OBJECT_TYPE,EPOCH,MEAN_MOTION,ECCENTRICITY,INCLINATION,RA_OF_ASC_NODE,ARG_OF_PERICENTER,MEAN_ANOMALY,BSTAR,MEAN_MOTION_DOT,MEAN_MOTION_DDOT,TLE_LINE0,TLE_LINE1,TLE_LINE2,SEMIMAJOR_AXIS,PERIOD,APOGEE,PERIGEE,DECAYED
49430.0,STARLINK-3138,PAYLOAD,2024-08-15 08:58:25,15.08863084,0.0001628,53.2156,274.1387,68.0161,292.1004,0.00052943,8.153e-05,0.0,0 STARLINK-3138,1 49430U 21104Y   24228.37390938  .00008153  00000-0  52943-3 0  9991,2 49430  53.2156 274.1387 0001628  68.0161 292.1004 15.08863084152385,6917.81,95.436,540.801,538.549,0.0
49430.0,STARLINK-3138,PAYLOAD,2024-08-15 20:06:07,15.08859845,0.0001622,53.2147,272.0567,70.8583,289.2585,0.00012079,1.636e-05,0.0,0 STARLINK-3138,1 49430U 21104Y   24228.83758343  .00001636  00000-0  12079-3 0  9995,2 49430  53.2147 272.0567 0001622  70.8583 289.2585 15.08859845153534,6917.82,95.436,540.807,538.563,0.0
49430.0,STARLINK-3138,PAYLOAD,2024-08-16 10:24:35,15.0885059,0.0001724,53.2154,269.3809,71.784,288.334,-2.7936e-06,-3.33e-06,0.0,0 STARLINK-3138,1 49430U 21104Y   24229.43374453 -.00000333  00000-0 -27936-5 0  9993,2 49430  53.2154 269.3809 0001724  71.7840 288.3340 15.08850590153626,6917.848,95.437,540.906,538.52,0.0
49430.0,STARLINK-3138,PAYLOAD,2024-08-17 07:04:36,15.08847511,0.0001809,53.2165,265.514,73.49,286.6291,-4.1981e-05,-9.56e-06,0.0,0 STARLINK-3138,1 49430U 21104Y   24230.29486738 -.00000956  00000-0 -41981-4 0  9995,2 49430  53.2165 265.5140 0001809  73.4900 286.6291 15.08847511153753,6917.857,95.437,540.974,538.471,0.0
49430.0,STARLINK-3138,PAYLOAD,2024-08-18 02:09:13,15.08842903,0.0001687,53.2164,261.9453,76.5295,283.5885,6.6065e-05,7.64e-06,0.0,0 STARLINK-3138,1 49430U 21104Y   24231.08974363  .00000764  00000-0  66065-4 0  9994,2 49430  53.2164 261.9453 0001687  76.5295 283.5885 15.08842903152792,6917.872,95.437,540.904,538.569,0.0
49430.0,STARLINK-3138,PAYLOAD,2024-08-18 08:30:46,15.08844215,0.000176,53.2166,260.7565,73.3308,286.7877,6.8899e-05,8.09e-06,0.0,0 STARLINK-3138,1 49430U 21104Y   24231.35470223  .00000809  00000-0  68899-4 0  9997,2 49430  53.2166 260.7565 0001760  73.3308 286.7877 15.08844215153916,6917.868,95.437,540.95,538.515,0.0
49430.0,STARLINK-3138,PAYLOAD,2024-08-19 11:32:19,15.08838645,0.0001593,53.2159,255.7003,86.4066,273.7108,5.8712e-05,6.46e-06,0.0,0 STARLINK-3138,1 49430U 21104Y   24232.48078433  .00000646  00000-0  58712-4 0  9991,2 49430  53.2159 255.7003 0001593  86.4066 273.7108 15.08838645154081,6917.885,95.438,540.852,538.648,0.0
49430.0,STARLINK-3138,PAYLOAD,2024-08-19 13:07:42,15.08839117,0.000158,53.2158,255.4029,85.8653,274.252,6.1857e-05,6.97e-06,0.0,0 STARLINK-3138,1 49430U 21104Y   24232.54702390  .00000697  00000-0  61857-4 0  9994,2 49430  53.2158 255.4029 0001580  85.8653 274.2520 15.08839117153017,6917.883,95.438,540.841,538.655,0.0
49430.0,STARLINK-3138,PAYLOAD,2024-08-20 08:12:20,15.08840998,0.0001552,53.2158,251.8342,85.2286,274.8884,2.329e-05,8.3e-07,0.0,0 STARLINK-3138,1 49430U 21104Y   24233.34190403  .00000083  00000-0  23290-4 0  9997,2 49430  53.2158 251.8342 0001552  85.2286 274.8884 15.08840998153131,6917.877,95.437,540.816,538.669,0.0
49430.0,STARLINK-3138,PAYLOAD,2024-08-21 04:52:21,15.08839584,0.000152,53.2157,247.9681,84.5118,275.6047,4.9257e-05,4.96e-06,0.0,0 STARLINK-3138,1 49430U 21104Y   24234.20302468  .00000496  00000-0  49257-4 0  9998,2 49430  53.2157 247.9681 0001520  84.5118 275.6047 15.08839584154346,6917.882,95.438,540.798,538.695,0.0
49430.0,STARLINK-3138,PAYLOAD,2024-08-21 06:27:44,15.0884015,0.0001525,53.2157,247.6708,84.4846,275.632,5.3154e-05,5.58e-06,0.0,0 STARLINK-3138,1 49430U 21104Y   24234.26926421  .00000558  00000-0  53154-4 0  9995,2 49430  53.2157 247.6708 0001525  84.4846 275.6320 15.08840150153271,6917.88,95.438,540.8,538.69,0.0
